{
  "type": "FeatureCollection",
  "features": [
    {
      "type": "Feature",
      "properties": {
        "norad_id": 29770,
        "name": "FENGYUN 1C DEB",
        "group": "fengyun-1c-debris",
        "lat": -21.375426800832464,
        "lon": -115.47179309698912,
        "alt_km": 802.6384700326398,
        "timestamp": "2025-12-18T10:51:26.077659+00:00",
        "meta_object_name": "FENGYUN 1C DEB",
        "meta_object_id": "1999-025BL",
        "meta_epoch": "2025-12-17T17:35:53.846304",
        "meta_mean_motion": 14.20146274,
        "meta_eccentricity": 0.00632671,
        "meta_inclination": 98.8468,
        "meta_ra_of_asc_node": 67.3041,
        "meta_arg_of_pericenter": 256.8695,
        "meta_mean_anomaly": 230.7655,
        "meta_ephemeris_type": 0,
        "meta_classification_type": "U",
        "meta_norad_cat_id": 29770,
        "meta_element_set_no": 999,
        "meta_rev_at_epoch": 97157,
        "meta_bstar": 0.0011690702,
        "meta_mean_motion_dot": 2.499e-05,
        "meta_mean_motion_ddot": 0,
        "tle_line1": "1 29770U 99025BL  25351.73326211  .00002499  00000+0  11691-2 0  9994",
        "tle_line2": "2 29770  98.8468  67.3041 0063267 256.8695 230.7655 14.20146274971574"
      },
      "geometry": {
        "type": "Point",
        "coordinates": [
          -115.47179309698912,
          -21.375426800832464
        ]
      }
    },
    {
      "type": "Feature",
      "properties": {
        "norad_id": 29772,
        "name": "FENGYUN 1C DEB",
        "group": "fengyun-1c-debris",
        "lat": 46.17393902032785,
        "lon": 30.04920299303068,
        "alt_km": 956.0905755033482,
        "timestamp": "2025-12-18T10:51:26.077670+00:00",
        "meta_object_name": "FENGYUN 1C DEB",
        "meta_object_id": "1999-025BN",
        "meta_epoch": "2025-12-17T13:57:34.862400",
        "meta_mean_motion": 14.03228364,
        "meta_eccentricity": 0.01378288,
        "meta_inclination": 98.3864,
        "meta_ra_of_asc_node": 200.4054,
        "meta_arg_of_pericenter": 276.8332,
        "meta_mean_anomaly": 141.1175,
        "meta_ephemeris_type": 0,
        "meta_classification_type": "U",
        "meta_norad_cat_id": 29772,
        "meta_element_set_no": 999,
        "meta_rev_at_epoch": 96323,
        "meta_bstar": 0.00086268215,
        "meta_mean_motion_dot": 1.422e-05,
        "meta_mean_motion_ddot": 0,
        "tle_line1": "1 29772U 99025BN  25351.58165350  .00001422  00000+0  86268-3 0  9992",
        "tle_line2": "2 29772  98.3864 200.4054 0137828 276.8332 141.1175 14.03228364963238"
      },
      "geometry": {
        "type": "Point",
        "coordinates": [
          30.04920299303068,
          46.17393902032785
        ]
      }
    },
    {
      "type": "Feature",
      "properties": {
        "norad_id": 29773,
        "name": "FENGYUN 1C DEB",
        "group": "fengyun-1c-debris",
        "lat": -37.361959645286554,
        "lon": 153.15664015608695,
        "alt_km": 783.9006342732837,
        "timestamp": "2025-12-18T10:51:26.077680+00:00",
        "meta_object_name": "FENGYUN 1C DEB",
        "meta_object_id": "1999-025BP",
        "meta_epoch": "2025-12-17T22:17:18.741696",
        "meta_mean_motion": 14.27579868,
        "meta_eccentricity": 0.00463929,
        "meta_inclination": 98.9876,
        "meta_ra_of_asc_node": 145.678,
        "meta_arg_of_pericenter": 275.4402,
        "meta_mean_anomaly": 236.4442,
        "meta_ephemeris_type": 0,
        "meta_classification_type": "U",
        "meta_norad_cat_id": 29773,
        "meta_element_set_no": 999,
        "meta_rev_at_epoch": 98271,
        "meta_bstar": 0.00031344294,
        "meta_mean_motion_dot": 7.33e-06,
        "meta_mean_motion_ddot": 0,
        "tle_line1": "1 29773U 99025BP  25351.92868914  .00000733  00000+0  31344-3 0  9996",
        "tle_line2": "2 29773  98.9876 145.6780 0046392 275.4402 236.4442 14.27579868982715"
      },
      "geometry": {
        "type": "Point",
        "coordinates": [
          153.15664015608695,
          -37.361959645286554
        ]
      }
    },
    {
      "type": "Feature",
      "properties": {
        "norad_id": 29774,
        "name": "FENGYUN 1C DEB",
        "group": "fengyun-1c-debris",
        "lat": -9.657695408375208,
        "lon": 111.39352125576448,
        "alt_km": 815.1982729554638,
        "timestamp": "2025-12-18T10:51:26.077690+00:00",
        "meta_object_name": "FENGYUN 1C DEB",
        "meta_object_id": "1999-025BQ",
        "meta_epoch": "2025-12-17T19:04:50.013120",
        "meta_mean_motion": 14.22736487,
        "meta_eccentricity": 0.00512443,
        "meta_inclination": 99.0767,
        "meta_ra_of_asc_node": 292.2754,
        "meta_arg_of_pericenter": 109.0284,
        "meta_mean_anomaly": 315.0241,
        "meta_ephemeris_type": 0,
        "meta_classification_type": "U",
        "meta_norad_cat_id": 29774,
        "meta_element_set_no": 999,
        "meta_rev_at_epoch": 98147,
        "meta_bstar": 0.00014409822,
        "meta_mean_motion_dot": 2.81e-06,
        "meta_mean_motion_ddot": 0,
        "tle_line1": "1 29774U 99025BQ  25351.79502330  .00000281  00000+0  14410-3 0  9992",
        "tle_line2": "2 29774  99.0767 292.2754 0051244 109.0284 315.0241 14.22736487981479"
      },
      "geometry": {
        "type": "Point",
        "coordinates": [
          111.39352125576448,
          -9.657695408375208
        ]
      }
    },
    {
      "type": "Feature",
      "properties": {
        "norad_id": 29776,
        "name": "FENGYUN 1C DEB",
        "group": "fengyun-1c-debris",
        "lat": 50.67749022379335,
        "lon": -150.0953047279608,
        "alt_km": 871.9099659406211,
        "timestamp": "2025-12-18T10:51:26.077701+00:00",
        "meta_object_name": "FENGYUN 1C DEB",
        "meta_object_id": "1999-025BS",
        "meta_epoch": "2025-12-17T12:51:02.529216",
        "meta_mean_motion": 14.07778275,
        "meta_eccentricity": 0.00228429,
        "meta_inclination": 98.7708,
        "meta_ra_of_asc_node": 18.1508,
        "meta_arg_of_pericenter": 256.7075,
        "meta_mean_anomaly": 267.4577,
        "meta_ephemeris_type": 0,
        "meta_classification_type": "U",
        "meta_norad_cat_id": 29776,
        "meta_element_set_no": 999,
        "meta_rev_at_epoch": 97147,
        "meta_bstar": 0.0002309083,
        "meta_mean_motion_dot": 3.49e-06,
        "meta_mean_motion_ddot": 0,
        "tle_line1": "1 29776U 99025BS  25351.53544594  .00000349  00000+0  23091-3 0  9994",
        "tle_line2": "2 29776  98.7708  18.1508 0022842 256.7075 267.4577 14.07778275971479"
      },
      "geometry": {
        "type": "Point",
        "coordinates": [
          -150.0953047279608,
          50.67749022379335
        ]
      }
    },
    {
      "type": "Feature",
      "properties": {
        "norad_id": 29777,
        "name": "FENGYUN 1C DEB",
        "group": "fengyun-1c-debris",
        "lat": -32.76347005070767,
        "lon": -136.7201142542427,
        "alt_km": 863.0371506074216,
        "timestamp": "2025-12-18T10:51:26.077711+00:00",
        "meta_object_name": "FENGYUN 1C DEB",
        "meta_object_id": "1999-025BT",
        "meta_epoch": "2025-12-17T17:11:03.460992",
        "meta_mean_motion": 13.92106766,
        "meta_eccentricity": 0.00929142,
        "meta_inclination": 99.283,
        "meta_ra_of_asc_node": 48.5846,
        "meta_arg_of_pericenter": 196.2468,
        "meta_mean_anomaly": 288.1579,
        "meta_ephemeris_type": 0,
        "meta_classification_type": "U",
        "meta_norad_cat_id": 29777,
        "meta_element_set_no": 999,
        "meta_rev_at_epoch": 96110,
        "meta_bstar": 6.3768794e-05,
        "meta_mean_motion_dot": 3.9e-07,
        "meta_mean_motion_ddot": 0,
        "tle_line1": "1 29777U 99025BT  25351.71601228  .00000039  00000+0  63769-4 0  9996",
        "tle_line2": "2 29777  99.2830  48.5846 0092914 196.2468 288.1579 13.92106766961109"
      },
      "geometry": {
        "type": "Point",
        "coordinates": [
          -136.7201142542427,
          -32.76347005070767
        ]
      }
    },
    {
      "type": "Feature",
      "properties": {
        "norad_id": 29779,
        "name": "FENGYUN 1C DEB",
        "group": "fengyun-1c-debris",
        "lat": -69.73993281905577,
        "lon": 159.0800491128722,
        "alt_km": 865.4065070923916,
        "timestamp": "2025-12-18T10:51:26.077722+00:00",
        "meta_object_name": "FENGYUN 1C DEB",
        "meta_object_id": "1999-025BV",
        "meta_epoch": "2025-12-17T18:23:06.905760",
        "meta_mean_motion": 14.1344728,
        "meta_eccentricity": 0.00637334,
        "meta_inclination": 98.677,
        "meta_ra_of_asc_node": 2.8523,
        "meta_arg_of_pericenter": 149.9322,
        "meta_mean_anomaly": 210.5534,
        "meta_ephemeris_type": 0,
        "meta_classification_type": "U",
        "meta_norad_cat_id": 29779,
        "meta_element_set_no": 999,
        "meta_rev_at_epoch": 97483,
        "meta_bstar": 0.00020297896,
        "meta_mean_motion_dot": 3.47e-06,
        "meta_mean_motion_ddot": 0,
        "tle_line1": "1 29779U 99025BV  25351.76605215  .00000347  00000+0  20298-3 0  9994",
        "tle_line2": "2 29779  98.6770   2.8523 0063733 149.9322 210.5534 14.13447280974830"
      },
      "geometry": {
        "type": "Point",
        "coordinates": [
          159.0800491128722,
          -69.73993281905577
        ]
      }
    }
  ]
}